OBJECT_NAME,OBJECT_ID,EPOCH,MEAN_MOTION,ECCENTRICITY,INCLINATION,RA_OF_ASC_NODE,ARG_OF_PERICENTER,MEAN_ANOMALY,EPHEMERIS_TYPE,CLASSIFICATION_TYPE,NORAD_CAT_ID,ELEMENT_SET_NO,REV_AT_EPOCH,BSTAR,MEAN_MOTION_DOT,MEAN_MOTION_DDOT
GONETS-M 11,2015-020A,2026-05-09T20:27:33.859872,12.42875729,.0017378,82.4873,54.8744,84.6018,275.7043,0,U,40552,999,50397,.35023E-3,.59E-6,0
GONETS-M 12,2015-020B,2026-05-09T19:50:01.493952,12.42890270,.0016424,82.4906,56.0044,70.4630,289.8222,0,U,40553,999,50396,.51414E-3,.81E-6,0
GONETS-M 13,2015-020C,2026-05-09T21:06:49.428864,12.42868983,.0015009,82.4870,54.5974,56.3791,303.8719,0,U,40554,999,50394,.46216E-3,.74E-6,0
DMC3-FM1,2015-032A,2026-05-09T21:12:31.114080,14.85694862,.0005545,97.6510,356.5515,163.6360,196.5036,0,U,40715,999,58422,.15611E-4,.84E-6,0
DMC3-FM2,2015-032B,2026-05-09T21:44:27.890304,14.85698490,.0005883,97.6563,358.1201,171.1317,189.0003,0,U,40716,999,58422,.3669E-4,.267E-5,0
DMC3-FM3,2015-032C,2026-05-09T20:40:43.972320,14.85700148,.0005216,97.6615,359.8060,167.8832,192.2510,0,U,40717,999,58422,.11243E-3,.924E-5,0
CARBONITE 1 (CBNT-1),2015-032D,2026-05-09T19:18:15.545376,14.83473015,.0015926,97.6505,309.4847,63.2892,296.9950,0,U,40718,999,58365,.25087E-3,.2016E-4,0
DEORBITSAIL,2015-032E,2026-05-09T13:24:03.142944,15.03317617,.0013135,97.5923,347.1254,10.5514,349.5984,0,U,40719,999,58544,.45301E-3,.6099E-4,0
2015-049G,2015-049G,2026-05-09T20:58:31.834848,15.63579909,.0004456,97.4599,171.7265,18.4579,341.6840,0,U,40905,999,59045,.29591E-3,.27377E-3,0
LILACSAT-2,2015-049K,2026-05-09T21:05:59.754912,15.50186193,.0007924,97.4705,165.2937,46.9240,313.2673,0,U,40908,999,58981,.22863E-3,.12818E-3,0
COSMOS 2507 (RODNIK-S 13),2015-050A,2026-05-09T22:00:17.136000,12.42926153,.0011189,82.4892,103.4973,73.7407,286.4903,0,U,40920,999,48210,.10283E-2,.152E-5,0
COSMOS 2508 (RODNIK-S 14),2015-050B,2026-05-09T20:54:56.679840,12.42913348,.0015384,82.4845,102.0451,104.6038,255.6748,0,U,40921,999,48208,.12305E-2,.181E-5,0
COSMOS 2509 (RODNIK-S 15),2015-050C,2026-05-09T21:22:51.694176,12.42883144,.0015481,82.4853,102.1314,120.7587,239.5019,0,U,40922,999,48212,.13537E-2,.197E-5,0
LQSAT,2015-057A,2026-05-09T20:30:51.308928,14.76734140,.0018167,97.6684,125.1318,40.7734,319.4832,0,U,40958,999,56965,.34735E-4,.196E-5,0
LINGQIAO VIDEO A,2015-057B,2026-05-09T21:23:25.768608,14.77339996,.0017851,97.6626,126.5862,38.0951,322.1518,0,U,40959,999,56975,.11668E-3,.782E-5,0
LINGQIAO VIDEO B,2015-057C,2026-05-09T20:53:47.083776,14.77441928,.0018018,97.6593,127.7402,38.2026,322.0459,0,U,40960,999,56979,.3444E-4,.197E-5,0
JILIN-1,2015-057D,2026-05-09T20:00:15.162048,14.78096048,.0017825,97.6512,131.1072,33.1060,327.1263,0,U,40961,999,56994,.87007E-4,.582E-5,0
FOX-1A (AO-85),2015-058D,2026-05-09T20:22:08.976000,14.90742413,.0128864,64.7765,38.1056,71.6304,289.8772,0,U,40967,999,10785,.2229E-3,.2394E-4,0
SINOD-D 1,2015-058E,2026-05-09T20:01:19.883424,14.95603975,.0117359,64.7769,18.9901,68.4385,292.9188,0,U,40968,999,11092,.27287E-3,.3308E-4,0
ELEKTRO-L 2,2015-074A,2026-05-09T04:22:49.989792,1.00273480,.00017034,6.5968,70.9914,275.5141,291.6863,0,U,41105,999,3811,0,-.106E-5,0
DAMPE,2015-078A,2026-05-09T20:40:24.076128,15.30689544,.0011022,97.4573,135.1425,204.8795,155.1916,0,U,41173,999,57868,.44035E-4,.123E-4,0
ORBCOMM FM114,2015-081A,2026-05-09T11:43:05.479104,14.58815118,.0001941,47.0036,184.9621,353.3263,6.7597,0,U,41179,999,55210,.82961E-4,.221E-5,0
ORBCOMM FM110,2015-081D,2026-05-09T14:44:06.333216,14.58819110,.000402,47.0006,183.8193,259.1160,100.9274,0,U,41182,999,55199,.10259E-3,.313E-5,0
ORBCOMM FM112,2015-081F,2026-05-09T04:10:03.145728,14.58751952,.0002478,46.9973,94.7145,13.3658,346.7292,0,U,41184,999,55325,.14887E-3,.531E-5,0
ORBCOMM FM113,2015-081G,2026-05-09T13:27:17.536032,14.58815052,.0001577,47.0000,93.2499,357.3984,2.6893,0,U,41185,999,55329,.97854E-4,.291E-5,0
ORBCOMM FM108,2015-081J,2026-05-09T15:50:39.742080,14.58815720,.000248,47.0064,4.3433,10.7536,349.3403,0,U,41187,999,55445,.14259E-3,.502E-5,0
ORBCOMM FM117,2015-081K,2026-05-09T16:39:31.364064,14.58813820,.0002875,47.0029,2.8285,19.0231,341.0762,0,U,41188,999,55450,.1389E-3,.485E-5,0
ORBCOMM FM116,2015-081L,2026-05-09T12:54:31.916160,14.58822866,.000243,47.0017,93.3547,264.4614,95.5994,0,U,41189,999,55329,.79099E-4,.202E-5,0
CHUBUSAT-2,2016-012B,2026-05-09T14:45:55.795104,15.20500035,.0008741,30.9973,214.4352,45.5018,314.6337,0,U,41338,999,56254,.1792E-3,.4131E-4,0
CHUBUSAT-3,2016-012C,2026-05-09T16:23:20.908896,15.18246328,.0009003,31.0040,222.6696,33.9013,326.2201,0,U,41339,999,56234,.18599E-3,.4015E-4,0
HORYU-4,2016-012D,2026-05-09T18:25:10.259904,15.77249913,.0005847,30.9893,356.5603,357.1247,2.9376,0,U,41340,999,56471,.7426E-3,.129383E-2,0
ZIYUAN 3-02 (ZY 3-02),2016-033A,2026-05-09T20:15:51.471936,15.21427043,.0013959,97.3837,206.3511,72.5204,287.7557,0,U,41556,999,55215,.18063E-3,.3996E-4,0
CARTOSAT-2C,2016-040A,2026-05-09T20:37:27.473664,15.19181400,.000824,97.4502,190.3576,268.1222,91.9069,0,U,41599,999,54789,.35442E-4,.678E-5,0
LAPAN-A3,2016-040E,2026-05-09T20:59:33.984096,15.32863644,.0011401,97.1492,127.2887,144.5408,215.6595,0,U,41603,999,54894,.90853E-4,.2814E-4,0
GAOFEN-3,2016-049A,2026-05-09T20:33:31.235328,14.42209655,.0000979,98.4030,138.2205,74.6496,285.4802,0,U,41727,999,51312,-.39759E-4,-.174E-5,0
PRATHAM,2016-059A,2026-05-09T18:41:51.895104,14.67143454,.003081,97.8324,128.3266,343.7576,16.2639,0,U,41783,999,51388,.10622E-3,.554E-5,0
ALSAT-1N,2016-059G,2026-05-09T20:12:49.086720,14.69245761,.0024879,97.8019,134.9024,313.4057,46.5078,0,U,41789,999,51437,.11836E-3,.653E-5,0
CAS-2T & KS-1Q,2016-066G,2026-05-09T19:10:17.633280,14.44587249,.0340969,98.3825,205.9692,245.9613,110.5550,0,U,41847,999,49925,.87912E-4,.553E-5,0
YUNHAI-1 01,2016-068A,2026-05-09T21:28:55.287840,14.32711145,.0006078,98.5853,141.2569,136.8507,223.3154,0,U,41857,999,49634,.19692E-4,.1E-6,0
RESOURCESAT-2A,2016-074A,2026-05-09T20:28:30.032832,14.21603040,.0002314,98.7526,203.6683,158.6778,201.4496,0,U,41877,999,48885,-.11156E-3,-.289E-5,0
TANSAT,2016-081A,2026-05-09T20:50:04.425792,14.59917705,.0021827,98.5374,128.9953,68.6473,291.7052,0,U,41898,999,49903,.62999E-4,.252E-5,0
JILIN-1 03,2017-002B,2026-05-09T20:18:00.086112,15.40657810,.0004183,97.1968,137.4981,328.9844,31.1156,0,U,41914,999,51595,.22862E-3,.9242E-4,0
CARTOSAT-2D,2017-008A,2026-05-09T19:49:34.449888,15.19203012,.0005225,97.4130,189.8412,28.1647,331.9870,0,U,41948,999,51175,.10734E-3,.2192E-4,0
CARTOSAT-2E,2017-036C,2026-05-09T20:14:46.904352,15.19286158,.0004377,97.4295,190.2710,86.7215,273.4520,0,U,42767,999,49232,.77367E-4,.1565E-4,0
D-SAT,2017-036AF,2026-05-09T20:02:48.742368,15.16630115,.0080574,97.5544,108.8720,295.2227,64.0669,0,U,42794,999,48504,.25074E-3,.5252E-4,0
IRIDIUM 113,2017-039A,2026-05-09T20:49:27.150240,14.34217637,.0002188,86.3975,338.2035,92.7703,267.3743,0,U,42803,999,46569,.41433E-4,.136E-5,0
NORSAT 2,2017-042D,2026-05-09T18:02:27.858048,15.21153690,.0009867,97.4030,303.8305,179.1008,181.0247,0,U,42828,999,48189,.37498E-3,.8297E-4,0
TECHNOSAT,2017-042E,2026-05-09T11:35:18.011040,15.04719652,.0016635,97.4243,288.6312,222.1084,137.8866,0,U,42829,999,48088,.1186E-3,.1615E-4,0
FLYING LAPTOP,2017-042G,2026-05-09T20:29:35.759904,15.00895062,.0017663,97.4522,286.9089,253.8119,106.1162,0,U,42831,999,48070,.23091E-3,.2891E-4,0
WNISAT 1R,2017-042L,2026-05-09T10:39:13.252032,15.01582859,.0010732,97.4788,286.9644,298.3346,61.6796,0,U,42835,999,48069,.1744E-3,.2205E-4,0
LEMUR-2-GREENBERG,2017-042N,2026-05-09T10:50:41.396928,15.30131568,.001013,97.3818,310.2962,137.9928,222.2091,0,U,42837,999,48246,.47932E-3,.13932E-3,0
LEMUR-2-FURIAUS,2017-042R,2026-05-09T17:52:03.486720,15.28987282,.0007513,97.3772,308.6312,190.5049,169.6036,0,U,42840,999,48233,.46167E-3,.12941E-3,0
CORVUS BC2,2017-042X,2026-05-09T17:28:59.190240,15.06050024,.001197,97.4039,292.5891,240.5119,119.4915,0,U,42846,999,48127,.19394E-3,.2775E-4,0
CORVUS BC1,2017-042Y,2026-05-09T09:29:11.792832,15.06221332,.0011149,97.4070,293.0577,215.5186,144.5301,0,U,42847,999,48125,.21672E-3,.3122E-4,0
VRSS-2,2017-060A,2026-05-09T21:11:09.465216,14.81132774,.0015905,97.6544,169.3303,221.3428,138.6582,0,U,42954,999,46278,.10096E-3,.736E-5,0
MOHAMMED VI-A,2017-070A,2026-05-09T20:51:23.770368,14.77086755,.0001308,97.9560,202.7240,102.8522,257.2835,0,U,43005,999,45832,-.67634E-5,-.98E-6,0
FENGYUN 3D,2017-072A,2026-05-09T21:06:22.732128,14.19730770,.0002057,99.0113,103.6153,127.2869,232.8494,0,U,43010,999,43955,-.74201E-4,-.203E-5,0
CZ-4C R/B,2017-072C,2026-05-09T20:02:31.938432,14.58745729,.0121271,98.5752,236.5860,270.0376,88.6926,0,U,43012,999,45104,.51988E-4,.21E-5,0
NOAA 20 (JPSS-1),2017-073A,2026-05-09T19:08:45.091104,14.19550449,.000184,98.7756,69.6050,54.5494,305.5854,0,U,43013,999,43902,.43102E-4,.47E-6,0
MAKERSAT 0,2017-073D,2026-05-09T15:00:28.344384,15.30462530,.0112259,97.4679,11.8824,50.9128,310.2032,0,U,43016,999,46056,.52045E-3,.18573E-3,0
RADFXSAT (FOX-1B),2017-073E,2026-05-09T13:38:37.930848,15.12012690,.0154161,97.4764,357.5869,101.8257,260.0310,0,U,43017,999,45955,.32135E-3,.7307E-4,0
JILIN-1 04,2017-074A,2026-05-09T19:08:19.705920,15.41484414,.0003288,97.4814,238.4265,353.1908,6.9294,0,U,43022,999,46835,.22488E-3,.9337E-4,0
JILIN-1 05,2017-074B,2026-05-09T19:40:01.566912,15.33286772,.0005402,97.4822,235.4819,20.7661,339.3799,0,U,43023,999,46812,.1931E-3,.6132E-4,0
JILIN-1 06,2017-074C,2026-05-09T18:55:49.319328,15.33267900,.0007408,97.4752,232.5030,28.2211,331.9431,0,U,43024,999,46795,.13039E-3,.4113E-4,0
IRIDIUM 116,2017-083C,2026-05-09T20:12:56.022912,14.34220886,.0002145,86.3967,338.0397,78.1129,282.0307,0,U,43072,999,43867,.53908E-4,.171E-5,0
IRIDIUM 130,2017-083D,2026-05-09T19:27:15.196320,14.34217655,.0002213,86.3972,338.3243,81.7719,278.3728,0,U,43073,999,43861,-.5075E-6,.18E-6,0
LKW-2,2017-084A,2026-05-09T20:47:53.477088,15.25833305,.000299,97.1223,171.4622,55.8333,304.3189,0,U,43080,999,46584,.16621E-3,.4184E-4,0
